OBJECT_NAME,OBJECT_ID,EPOCH,MEAN_MOTION,ECCENTRICITY,INCLINATION,RA_OF_ASC_NODE,ARG_OF_PERICENTER,MEAN_ANOMALY,EPHEMERIS_TYPE,CLASSIFICATION_TYPE,NORAD_CAT_ID,ELEMENT_SET_NO,REV_AT_EPOCH,BSTAR,MEAN_MOTION_DOT,MEAN_MOTION_DDOT
STARLINK-35568,2025-262T,2026-07-13T15:14:44.858688,15.27566225,.0004891,43.0073,305.2880,292.3033,67.7301,0,U,66473,999,3816,.40334949E-3,.10851E-3,0
STARLINK-35620,2025-262U,2026-07-14T13:47:52.195488,15.27582091,.00023051,43.0022,299.4329,276.9721,83.0868,0,U,66474,999,3831,.2616011E-3,.6944E-4,0
STARLINK-35538,2025-262V,2026-07-14T08:19:21.263232,15.27587235,.0001245,42.9991,301.1554,239.5701,120.5028,0,U,66475,999,3827,.33403879E-3,.8943E-4,0
STARLINK-35372,2025-262W,2026-07-14T14:11:55.779648,15.27566972,.00021795,43.0079,299.5598,277.3420,82.7184,0,U,66476,999,3820,.13379617E-3,.342E-4,0
STARLINK-35354,2025-262X,2026-07-14T13:44:10.144896,15.27576533,.00014604,43.0018,299.4127,268.5148,91.5537,0,U,66477,999,3831,.12874551E-3,.3282E-4,0
STARLINK-35283,2025-262Y,2026-07-14T08:15:39.229920,15.27587439,.00008263,42.9998,301.1372,219.9572,140.1219,0,U,66478,999,3827,.37683667E-3,.10124E-3,0
STARLINK-35581,2025-262Z,2026-07-14T13:21:58.176576,15.27583117,.000088,42.9993,299.2966,289.6026,70.4731,0,U,66479,999,3831,.37418975E-3,.1005E-3,0
STARLINK-35670,2025-262AA,2026-07-14T14:19:19.833312,15.27567284,.00027324,43.0047,299.5931,284.3665,75.6883,0,U,66480,999,3831,.17133262E-3,.4453E-4,0
STARLINK-35698,2025-262AB,2026-07-14T13:25:39.923040,15.27580950,.00019382,42.9996,299.3121,275.0297,85.0333,0,U,66481,999,3831,.21788825E-3,.5739E-4,0
STARLINK-35648,2025-262AC,2026-07-14T13:51:34.203744,15.27583147,.00025317,43.0040,299.4480,276.4512,83.6051,0,U,66482,999,3815,.26000223E-3,.69E-4,0
STARLINK-35654,2025-262AD,2026-07-14T13:36:45.829440,15.27577759,.00012813,42.9999,299.3716,254.6064,105.4646,0,U,66483,999,3831,.49596303E-4,.1103E-4,0
STARLINK-35371,2025-262AE,2026-07-14T08:34:09.297984,15.27584039,.00013677,42.9996,301.2315,254.8250,105.2451,0,U,66484,999,3827,.34314913E-3,.9194E-4,0
STARLINK-34774,2025-263A,2026-07-14T11:36:12.024000,15.27587457,.00007607,42.9997,354.3550,243.9529,116.1244,0,U,66485,999,3829,.5684372E-3,.15416E-3,0
STARLINK-34844,2025-263B,2026-07-14T11:34:20.640576,15.27589209,.00006537,42.9979,354.3409,232.3266,127.7526,0,U,66486,999,3824,.5180408E-3,.14024E-3,0
STARLINK-34733,2025-263C,2026-07-13T18:14:55.320000,15.27590590,.00014021,43.0021,358.3852,262.6564,97.4128,0,U,66487,999,3818,.34107152E-3,.9138E-4,0
STARLINK-35515,2025-263D,2026-07-14T10:13:08.268960,15.27594296,.00014125,42.9986,354.7733,181.8993,178.1854,0,U,66488,999,3828,.415656E-3,.11198E-3,0
STARLINK-35696,2025-263E,2026-07-13T20:24:14.123808,15.27588572,.0001879,43.0050,358.2011,295.4667,64.5990,0,U,66489,999,3819,.43879437E-3,.11835E-3,0
STARLINK-35693,2025-263F,2026-07-14T11:39:53.947584,15.27587441,.00007029,43.0013,354.3701,229.8866,130.1924,0,U,66490,999,3829,.52598172E-3,.14243E-3,0
STARLINK-35663,2025-263G,2026-07-13T19:03:03.682368,15.27598618,.00018375,43.0019,358.6354,297.3203,62.7461,0,U,66491,999,3818,.59696862E-3,.16211E-3,0
STARLINK-35673,2025-263H,2026-07-14T12:02:06.067104,15.27591720,.00011666,43.0017,354.4889,236.1697,123.9044,0,U,66492,999,3829,.5444561E-3,.14755E-3,0
STARLINK-35597,2025-263J,2026-07-14T11:03:06.173568,15.27581705,.00025937,42.9970,355.0393,283.9459,76.1104,0,U,66493,999,3828,.3459952E-3,.9272E-4,0
STARLINK-35689,2025-263K,2026-07-14T11:14:12.400512,15.27595804,.00002489,42.9953,355.1036,109.0884,250.9994,0,U,66494,999,3828,.37953718E-3,.10202E-3,0
STARLINK-35832,2025-263L,2026-07-14T10:22:23.678400,15.27587056,.00032529,43.0077,354.8293,272.2570,87.7909,0,U,66495,999,3828,.37470802E-3,.10066E-3,0
STARLINK-35909,2025-263M,2026-07-14T10:55:42.203712,15.27583522,.00017139,42.9993,355.0000,289.3752,70.6915,0,U,66496,999,3828,.29649714E-3,.7906E-4,0
STARLINK-35899,2025-263N,2026-07-14T10:07:35.687712,15.27581894,.00018188,43.0006,354.7455,300.5277,59.5395,0,U,66497,999,3828,.48403317E-3,.13082E-3,0
STARLINK-35907,2025-263P,2026-07-13T20:46:26.284800,15.27593358,.00021937,43.0009,358.3191,270.5508,89.5093,0,U,66498,999,3819,.38280174E-3,.10291E-3,0
STARLINK-35816,2025-263Q,2026-07-14T12:42:49.637088,15.27559515,.00028274,42.9969,354.7001,281.9174,78.1360,0,U,66499,999,3829,.21880188E-3,.576E-4,0
STARLINK-35894,2025-263R,2026-07-14T12:03:15.284736,15.27586729,.00016484,43.0018,357.9579,266.3504,93.7159,0,U,66500,999,3825,.35230193E-3,.9447E-4,0
STARLINK-35897,2025-263S,2026-07-14T10:37:12.022464,15.27586520,.00032732,43.0073,354.9064,275.3458,84.7020,0,U,66501,999,3828,.3497979E-3,.9378E-4,0
STARLINK-35922,2025-263T,2026-07-14T14:00:01.999872,15.27589268,.00014429,43.0004,354.3611,267.3742,42.0783,0,U,66502,999,586,-.73499599E-3,-.20438E-3,0
