STARLINK-35568          
1 66473U 25262T   26194.63524142  .00010851  00000+0  40335-3 0  9994
2 66473  43.0073 305.2880 0004891 292.3033  67.7301 15.27566225 38168
STARLINK-35620          
1 66474U 25262U   26195.57490967  .00006944  00000+0  26160-3 0  9994
2 66474  43.0022 299.4329 0002305 276.9721  83.0868 15.27582091 38310
STARLINK-35538          
1 66475U 25262V   26195.34677388  .00008943  00000+0  33404-3 0  9994
2 66475  42.9991 301.1554 0001245 239.5701 120.5028 15.27587235 38275
STARLINK-35372          
1 66476U 25262W   26195.59161782  .00003420  00000+0  13380-3 0  9994
2 66476  43.0079 299.5598 0002179 277.3420  82.7184 15.27566972 38208
STARLINK-35354          
1 66477U 25262X   26195.57233964  .00003282  00000+0  12875-3 0  9999
2 66477  43.0018 299.4127 0001460 268.5148  91.5537 15.27576533 38316
STARLINK-35283          
1 66478U 25262Y   26195.34420405  .00010124  00000+0  37684-3 0  9991
2 66478  42.9998 301.1372 0000826 219.9572 140.1219 15.27587439 38271
STARLINK-35581          
1 66479U 25262Z   26195.55692334  .00010050  00000+0  37419-3 0  9991
2 66479  42.9993 299.2966 0000880 289.6026  70.4731 15.27583117 38319
STARLINK-35670          
1 66480U 25262AA  26195.59675733  .00004453  00000+0  17133-3 0  9992
2 66480  43.0047 299.5931 0002732 284.3665  75.6883 15.27567284 38319
STARLINK-35698          
1 66481U 25262AB  26195.55948985  .00005739  00000+0  21789-3 0  9991
2 66481  42.9996 299.3121 0001938 275.0297  85.0333 15.27580950 38315
STARLINK-35648          
1 66482U 25262AC  26195.57747921  .00006900  00000+0  26000-3 0  9993
2 66482  43.0040 299.4480 0002531 276.4512  83.6051 15.27583147 38156
STARLINK-35654          
1 66483U 25262AD  26195.56719710  .00001103  00000+0  49596-4 0  9994
2 66483  42.9999 299.3716 0001281 254.6064 105.4646 15.27577759 38313
STARLINK-35371          
1 66484U 25262AE  26195.35705206  .00009194  00000+0  34315-3 0  9997
2 66484  42.9996 301.2315 0001367 254.8250 105.2451 15.27584039 38279
STARLINK-34774          
1 66485U 25263A   26195.48347250  .00015416  00000+0  56844-3 0  9999
2 66485  42.9997 354.3550 0000760 243.9529 116.1244 15.27587457 38295
STARLINK-34844          
1 66486U 25263B   26195.48218334  .00014024  00000+0  51804-3 0  9995
2 66486  42.9979 354.3409 0000653 232.3266 127.7526 15.27589209 38243
STARLINK-34733          
1 66487U 25263C   26194.76036250  .00009138  00000+0  34107-3 0  9998
2 66487  43.0021 358.3852 0001402 262.6564  97.4128 15.27590590 38189
STARLINK-35515          
1 66488U 25263D   26195.42579015  .00011198  00000+0  41566-3 0  9990
2 66488  42.9986 354.7733 0001412 181.8993 178.1854 15.27594296 38286
STARLINK-35696          
1 66489U 25263E   26194.85016347  .00011835  00000+0  43879-3 0  9998
2 66489  43.0050 358.2011 0001879 295.4667  64.5990 15.27588572 38195
STARLINK-35693          
1 66490U 25263F   26195.48604106  .00014243  00000+0  52598-3 0  9990
2 66490  43.0013 354.3701 0000702 229.8866 130.1924 15.27587441 38297
STARLINK-35663          
1 66491U 25263G   26194.79379262  .00016211  00000+0  59697-3 0  9990
2 66491  43.0019 358.6354 0001837 297.3203  62.7461 15.27598618 38182
STARLINK-35673          
1 66492U 25263H   26195.50145911  .00014755  00000+0  54446-3 0  9991
2 66492  43.0017 354.4889 0001166 236.1697 123.9044 15.27591720 38297
STARLINK-35597          
1 66493U 25263J   26195.46048812  .00009272  00000+0  34600-3 0  9997
2 66493  42.9970 355.0393 0002593 283.9459  76.1104 15.27581705 38289
STARLINK-35689          
1 66494U 25263K   26195.46819908  .00010202  00000+0  37954-3 0  9990
2 66494  42.9953 355.1036 0000248 109.0884 250.9994 15.27595804 38285
STARLINK-35832          
1 66495U 25263L   26195.43221850  .00010066  00000+0  37471-3 0  9993
2 66495  43.0077 354.8293 0003252 272.2570  87.7909 15.27587056 38281
STARLINK-35909          
1 66496U 25263M   26195.45534958  .00007906  00000+0  29650-3 0  9991
2 66496  42.9993 355.0000 0001713 289.3752  70.6915 15.27583522 38289
STARLINK-35899          
1 66497U 25263N   26195.42194083  .00013082  00000+0  48403-3 0  9999
2 66497  43.0006 354.7455 0001818 300.5277  59.5395 15.27581894 38289
STARLINK-35907          
1 66498U 25263P   26194.86558200  .00010291  00000+0  38280-3 0  9993
2 66498  43.0009 358.3191 0002193 270.5508  89.5093 15.27593358 38196
STARLINK-35816          
1 66499U 25263Q   26195.52974117  .00005760  00000+0  21880-3 0  9990
2 66499  42.9969 354.7001 0002827 281.9174  78.1360 15.27559515 38298
STARLINK-35894          
1 66500U 25263R   26195.50226024  .00009447  00000+0  35230-3 0  9998
2 66500  43.0018 357.9579 0001648 266.3504  93.7159 15.27586729 38259
STARLINK-35897          
1 66501U 25263S   26195.44250026  .00009378  00000+0  34980-3 0  9995
2 66501  43.0073 354.9064 0003273 275.3458  84.7020 15.27586520 38280
STARLINK-35922          
1 66502U 25263T   26195.58335648 -.00020438  00000+0 -73500-3 0  9998
2 66502  43.0004 354.3611 0001442 267.3742  42.0783 15.27589268  5863
